{"type": "FeatureCollection", "features": [ {"type": "Feature", "properties": {"norad_id": 34375, "name": "IRIDIUM 33 DEB", "group": "iridium-33-debris", "lat": -21.29922898270087, "lon": -176.85053509358804, "alt_km": 908.1089660273101, "timestamp": "2025-12-08T03:50:07.381478+00:00", "meta": {"OBJECT_NAME": "IRIDIUM 33 DEB", "OBJECT_ID": "1997-051FT", "EPOCH": "2025-12-06T13:07:23.276352", "MEAN_MOTION": 14.17975687, "ECCENTRICITY": 0.01028144, "INCLINATION": 86.433, "RA_OF_ASC_NODE": 185.193, "ARG_OF_PERICENTER": 146.2209, "MEAN_ANOMALY": 244.0709, "EPHEMERIS_TYPE": 0, "CLASSIFICATION_TYPE": "U", "NORAD_CAT_ID": 34375, "ELEMENT_SET_NO": 999, "REV_AT_EPOCH": 86624, "BSTAR": 0.00069808059, "MEAN_MOTION_DOT": 1.524e-05, "MEAN_MOTION_DDOT": 0}, "tle": {"line1": "1 34375U 97051FT  25340.54679718  .00001524  00000+0  69808-3 0  9990", "line2": "2 34375  86.4330 185.1930 0102814 146.2209 244.0709 14.17975687866242"}}, "geometry": {"type": "Point", "coordinates": [-176.85053509358804, -21.29922898270087]}}, {"type": "Feature", "properties": {"norad_id": 34376, "name": "IRIDIUM 33 DEB", "group": "iridium-33-debris", "lat": -21.60194989670936, "lon": 7.129895597652514, "alt_km": 707.7998016180636, "timestamp": "2025-12-08T03:50:07.381488+00:00", "meta": {"OBJECT_NAME": "IRIDIUM 33 DEB", "OBJECT_ID": "1997-051FU", "EPOCH": "2025-12-07T06:35:12.679584", "MEAN_MOTION": 14.6245094, "ECCENTRICITY": 0.0026551, "INCLINATION": 86.2982, "RA_OF_ASC_NODE": 8.9967, "ARG_OF_PERICENTER": 185.1534, "MEAN_ANOMALY": 174.9408, "EPHEMERIS_TYPE": 0, "CLASSIFICATION_TYPE": "U", "NORAD_CAT_ID": 34376, "ELEMENT_SET_NO": 999, "REV_AT_EPOCH": 87927, "BSTAR": 0.0021909418, "MEAN_MOTION_DOT": 0.00011177, "MEAN_MOTION_DDOT": 0}, "tle": {"line1": "1 34376U 97051FU  25341.27445231  .00011177  00000+0  21909-2 0  9997", "line2": "2 34376  86.2982   8.9967 0026551 185.1534 174.9408 14.62450940879276"}}, "geometry": {"type": "Point", "coordinates": [7.129895597652514, -21.60194989670936]}}, {"type": "Feature", "properties": {"norad_id": 34486, "name": "IRIDIUM 33 DEB", "group": "iridium-33-debris", "lat": 9.459550614632656, "lon": 14.74016503726064, "alt_km": 586.9659155934432, "timestamp": "2025-12-08T03:50:07.381499+00:00", "meta": {"OBJECT_NAME": "IRIDIUM 33 DEB", "OBJECT_ID": "1997-051GB", "EPOCH": "2025-12-07T02:13:33.403872", "MEAN_MOTION": 14.95417405, "ECCENTRICITY": 0.0013293, "INCLINATION": 86.3924, "RA_OF_ASC_NODE": 14.6301, "ARG_OF_PERICENTER": 131.1347, "MEAN_ANOMALY": 257.7745, "EPHEMERIS_TYPE": 0, "CLASSIFICATION_TYPE": "U", "NORAD_CAT_ID": 34486, "ELEMENT_SET_NO": 999, "REV_AT_EPOCH": 88902, "BSTAR": 0.003126332, "MEAN_MOTION_DOT": 0.00034749, "MEAN_MOTION_DDOT": 0}, "tle": {"line1": "1 34486U 97051GB  25341.09274773  .00034749  00000+0  31263-2 0  9994", "line2": "2 34486  86.3924  14.6301 0013293 131.1347 257.7745 14.95417405889026"}}, "geometry": {"type": "Point", "coordinates": [14.74016503726064, 9.459550614632656]}}, {"type": "Feature", "properties": {"norad_id": 34487, "name": "IRIDIUM 33 DEB", "group": "iridium-33-debris", "lat": 11.597593513294052, "lon": -166.4026161978024, "alt_km": 728.577018169457, "timestamp": "2025-12-08T03:50:07.381508+00:00", "meta": {"OBJECT_NAME": "IRIDIUM 33 DEB", "OBJECT_ID": "1997-051GC", "EPOCH": "2025-12-07T02:13:56.240256", "MEAN_MOTION": 14.43205284, "ECCENTRICITY": 0.00323026, "INCLINATION": 86.3439, "RA_OF_ASC_NODE": 14.8083, "ARG_OF_PERICENTER": 146.192, "MEAN_ANOMALY": 242.8588, "EPHEMERIS_TYPE": 0, "CLASSIFICATION_TYPE": "U", "NORAD_CAT_ID": 34487, "ELEMENT_SET_NO": 999, "REV_AT_EPOCH": 88167, "BSTAR": 0.00033824749, "MEAN_MOTION_DOT": 1.164e-05, "MEAN_MOTION_DDOT": 0}, "tle": {"line1": "1 34487U 97051GC  25341.09301204  .00001164  00000+0  33825-3 0  9997", "line2": "2 34487  86.3439  14.8083 0032302 146.1920 242.8588 14.43205284881678"}}, "geometry": {"type": "Point", "coordinates": [-166.4026161978024, 11.597593513294052]}}, {"type": "Feature", "properties": {"norad_id": 34488, "name": "IRIDIUM 33 DEB", "group": "iridium-33-debris", "lat": 8.44970714669674, "lon": 127.53095925147662, "alt_km": 488.91979352989983, "timestamp": "2025-12-08T03:50:07.381519+00:00", "meta": {"OBJECT_NAME": "IRIDIUM 33 DEB", "OBJECT_ID": "1997-051GD", "EPOCH": "2025-12-06T14:55:40.946016", "MEAN_MOTION": 15.27290051, "ECCENTRICITY": 0.00149214, "INCLINATION": 86.3249, "RA_OF_ASC_NODE": 308.8374, "ARG_OF_PERICENTER": 60.0841, "MEAN_ANOMALY": 300.1886, "EPHEMERIS_TYPE": 0, "CLASSIFICATION_TYPE": "U", "NORAD_CAT_ID": 34488, "ELEMENT_SET_NO": 999, "REV_AT_EPOCH": 89146, "BSTAR": 0.0068100775, "MEAN_MOTION_DOT": 0.0018679, "MEAN_MOTION_DDOT": 0}, "tle": {"line1": "1 34488U 97051GD  25340.62200169  .00186790  00000+0  68101-2 0  9997", "line2": "2 34488  86.3249 308.8374 0014921  60.0841 300.1886 15.27290051891466"}}, "geometry": {"type": "Point", "coordinates": [127.53095925147662, 8.44970714669674]}}, {"type": "Feature", "properties": {"norad_id": 34492, "name": "IRIDIUM 33 DEB", "group": "iridium-33-debris", "lat": -5.416376908861599, "lon": 156.81559200623437, "alt_km": 756.7239411744995, "timestamp": "2025-12-08T03:50:07.381529+00:00", "meta": {"OBJECT_NAME": "IRIDIUM 33 DEB", "OBJECT_ID": "1997-051GH", "EPOCH": "2025-12-07T00:15:45.559008", "MEAN_MOTION": 14.25493334, "ECCENTRICITY": 0.01896852, "INCLINATION": 86.4725, "RA_OF_ASC_NODE": 336.9443, "ARG_OF_PERICENTER": 256.8217, "MEAN_ANOMALY": 158.3608, "EPHEMERIS_TYPE": 0, "CLASSIFICATION_TYPE": "U", "NORAD_CAT_ID": 34492, "ELEMENT_SET_NO": 999, "REV_AT_EPOCH": 84977, "BSTAR": 0.008529506, "MEAN_MOTION_DOT": 0.00024407, "MEAN_MOTION_DDOT": 0}, "tle": {"line1": "1 34492U 97051GH  25341.01094397  .00024407  00000+0  85295-2 0  9999", "line2": "2 34492  86.4725 336.9443 0189685 256.8217 158.3608 14.25493334849770"}}, "geometry": {"type": "Point", "coordinates": [156.81559200623437, -5.416376908861599]}}, {"type": "Feature", "properties": {"norad_id": 34497, "name": "IRIDIUM 33 DEB", "group": "iridium-33-debris", "lat": 36.25051403098838, "lon": 57.093987294868725, "alt_km": 755.2537414063236, "timestamp": "2025-12-08T03:50:07.381539+00:00", "meta": {"OBJECT_NAME": "IRIDIUM 33 DEB", "OBJECT_ID": "1997-051GN", "EPOCH": "2025-12-07T04:14:57.003360", "MEAN_MOTION": 14.27428897, "ECCENTRICITY": 0.00793764, "INCLINATION": 86.2782, "RA_OF_ASC_NODE": 54.778, "ARG_OF_PERICENTER": 357.6873, "MEAN_ANOMALY": 31.1496, "EPHEMERIS_TYPE": 0, "CLASSIFICATION_TYPE": "U", "NORAD_CAT_ID": 34497, "ELEMENT_SET_NO": 999, "REV_AT_EPOCH": 86804, "BSTAR": 0.0010122974, "MEAN_MOTION_DOT": 2.585e-05, "MEAN_MOTION_DDOT": 0}, "tle": {"line1": "1 34497U 97051GN  25341.17704865  .00002585  00000+0  10123-2 0  9990", "line2": "2 34497  86.2782  54.7780 0079376 357.6873  31.1496 14.27428897868046"}}, "geometry": {"type": "Point", "coordinates": [57.093987294868725, 36.25051403098838]}}, {"type": "Feature", "properties": {"norad_id": 34508, "name": "IRIDIUM 33 DEB", "group": "iridium-33-debris", "lat": 13.369006120221323, "lon": 105.44899879013005, "alt_km": 811.7731697086783, "timestamp": "2025-12-08T03:50:07.381549+00:00", "meta": {"OBJECT_NAME": "IRIDIUM 33 DEB", "OBJECT_ID": "1997-051GZ", "EPOCH": "2025-12-07T07:44:12.489792", "MEAN_MOTION": 14.38354073, "ECCENTRICITY": 0.00657429, "INCLINATION": 86.371, "RA_OF_ASC_NODE": 104.9397, "ARG_OF_PERICENTER": 190.4936, "MEAN_ANOMALY": 169.4895, "EPHEMERIS_TYPE": 0, "CLASSIFICATION_TYPE": "U", "NORAD_CAT_ID": 34508, "ELEMENT_SET_NO": 999, "REV_AT_EPOCH": 87231, "BSTAR": 0.0027823611, "MEAN_MOTION_DOT": 8.712e-05, "MEAN_MOTION_DDOT": 0}, "tle": {"line1": "1 34508U 97051GZ  25341.32236678  .00008712  00000+0  27824-2 0  9996", "line2": "2 34508  86.3710 104.9397 0065742 190.4936 169.4895 14.38354073872317"}}, "geometry": {"type": "Point", "coordinates": [105.44899879013005, 13.369006120221323]}}, {"type": "Feature", "properties": {"norad_id": 34521, "name": "IRIDIUM 33 DEB", "group": "iridium-33-debris", "lat": 39.081976155812484, "lon": -150.3824743746482, "alt_km": 679.94307232951, "timestamp": "2025-12-08T03:50:07.381559+00:00", "meta": {"OBJECT_NAME": "IRIDIUM 33 DEB", "OBJECT_ID": "1997-051HN", "EPOCH": "2025-12-07T02:34:34.768704", "MEAN_MOTION": 14.63292122, "ECCENTRICITY": 0.00010763, "INCLINATION": 86.38, "RA_OF_ASC_NODE": 33.0278, "ARG_OF_PERICENTER": 256.8905, "MEAN_ANOMALY": 103.2186, "EPHEMERIS_TYPE": 0, "CLASSIFICATION_TYPE": "U", "NORAD_CAT_ID": 34521, "ELEMENT_SET_NO": 999, "REV_AT_EPOCH": 88390, "BSTAR": 0.001478161, "MEAN_MOTION_DOT": 7.646e-05, "MEAN_MOTION_DDOT": 0}, "tle": {"line1": "1 34521U 97051HN  25341.10734686  .00007646  00000+0  14782-2 0  9993", "line2": "2 34521  86.3800  33.0278 0001076 256.8905 103.2186 14.63292122883905"}}, "geometry": {"type": "Point", "coordinates": [-150.3824743746482, 39.081976155812484]}}, {"type": "Feature", "properties": {"norad_id": 34525, "name": "IRIDIUM 33 DEB", "group": "iridium-33-debris", "lat": -63.59315378751413, "lon": 41.46107872819064, "alt_km": 760.8356750254143, "timestamp": "2025-12-08T03:50:07.381569+00:00", "meta": {"OBJECT_NAME": "IRIDIUM 33 DEB", "OBJECT_ID": "1997-051HS", "EPOCH": "2025-12-06T03:59:55.296672", "MEAN_MOTION": 14.42880527, "ECCENTRICITY": 0.00065785, "INCLINATION": 86.3735, "RA_OF_ASC_NODE": 49.6493, "ARG_OF_PERICENTER": 110.3274, "MEAN_ANOMALY": 279.0864, "EPHEMERIS_TYPE": 0, "CLASSIFICATION_TYPE": "U", "NORAD_CAT_ID": 34525, "ELEMENT_SET_NO": 999, "REV_AT_EPOCH": 87993, "BSTAR": 0.0007253314, "MEAN_MOTION_DOT": 2.441e-05, "MEAN_MOTION_DDOT": 0}, "tle": {"line1": "1 34525U 97051HS  25340.16661223  .00002441  00000+0  72533-3 0  9995", "line2": "2 34525  86.3735  49.6493 0006578 110.3274 279.0864 14.42880527879935"}}, "geometry": {"type": "Point", "coordinates": [41.46107872819064, -63.59315378751413]}}]}